{"type": "FeatureCollection", "features": [ {"type": "Feature", "properties": {"norad_id": 39634, "name": "SENTINEL-1A", "group": "resource", "lat": -26.84737082897924, "lon": 5.518175881959232, "alt_km": 701.8205745977057, "timestamp": "2025-12-22T05:49:03.139263+00:00", "meta": {"OBJECT_NAME": "SENTINEL-1A", "OBJECT_ID": "2014-016A", "EPOCH": "2025-12-21T20:04:02.639424", "MEAN_MOTION": 14.59200109, "ECCENTRICITY": 0.000128, "INCLINATION": 98.1795, "RA_OF_ASC_NODE": 0.9429, "ARG_OF_PERICENTER": 85.7395, "MEAN_ANOMALY": 274.3951, "EPHEMERIS_TYPE": 0, "CLASSIFICATION_TYPE": "U", "NORAD_CAT_ID": 39634, "ELEMENT_SET_NO": 999, "REV_AT_EPOCH": 62415, "BSTAR": -3.0565e-05, "MEAN_MOTION_DOT": -1.9e-06, "MEAN_MOTION_DDOT": 0}, "tle": {"line1": "1 39634U 14016A   25355.83614166 -.00000190  00000+0 -30565-4 0  9996", "line2": "2 39634  98.1795   0.9429 0001280  85.7395 274.3951 14.59200109624158"}}, "geometry": {"type": "Point", "coordinates": [5.518175881959232, -26.84737082897924]}}, {"type": "Feature", "properties": {"norad_id": 39731, "name": "KAZEOSAT 1", "group": "resource", "lat": 78.60650377832498, "lon": 21.200335522888146, "alt_km": 743.501789959706, "timestamp": "2025-12-22T05:49:03.139274+00:00", "meta": {"OBJECT_NAME": "KAZEOSAT 1", "OBJECT_ID": "2014-024A", "EPOCH": "2025-12-21T19:26:46.603104", "MEAN_MOTION": 14.42066856, "ECCENTRICITY": 0.00012, "INCLINATION": 98.343, "RA_OF_ASC_NODE": 67.5142, "ARG_OF_PERICENTER": 96.4014, "MEAN_ANOMALY": 263.7313, "EPHEMERIS_TYPE": 0, "CLASSIFICATION_TYPE": "U", "NORAD_CAT_ID": 39731, "ELEMENT_SET_NO": 999, "REV_AT_EPOCH": 61299, "BSTAR": 4.1034e-05, "MEAN_MOTION_DOT": 9.2e-07, "MEAN_MOTION_DDOT": 0}, "tle": {"line1": "1 39731U 14024A   25355.81026161  .00000092  00000+0  41034-4 0  9995", "line2": "2 39731  98.3430  67.5142 0001200  96.4014 263.7313 14.42066856612998"}}, "geometry": {"type": "Point", "coordinates": [21.200335522888146, 78.60650377832498]}}, {"type": "Feature", "properties": {"norad_id": 39766, "name": "ALOS-2", "group": "resource", "lat": 15.918027476459462, "lon": -86.77025791751682, "alt_km": 631.356032484091, "timestamp": "2025-12-22T05:49:03.139284+00:00", "meta": {"OBJECT_NAME": "ALOS-2", "OBJECT_ID": "2014-029A", "EPOCH": "2025-12-21T20:57:49.279392", "MEAN_MOTION": 14.79472447, "ECCENTRICITY": 0.000139, "INCLINATION": 97.9232, "RA_OF_ASC_NODE": 90.5898, "ARG_OF_PERICENTER": 96.8709, "MEAN_ANOMALY": 263.266, "EPHEMERIS_TYPE": 0, "CLASSIFICATION_TYPE": "U", "NORAD_CAT_ID": 39766, "ELEMENT_SET_NO": 999, "REV_AT_EPOCH": 62536, "BSTAR": 0.00017955, "MEAN_MOTION_DOT": 1.29e-05, "MEAN_MOTION_DDOT": 0}, "tle": {"line1": "1 39766U 14029A   25355.87348703  .00001290  00000+0  17955-3 0  9998", "line2": "2 39766  97.9232  90.5898 0001390  96.8709 263.2660 14.79472447625362"}}, "geometry": {"type": "Point", "coordinates": [-86.77025791751682, 15.918027476459462]}}, {"type": "Feature", "properties": {"norad_id": 40010, "name": "KAZEOSAT 2", "group": "resource", "lat": -82.33423820699643, "lon": -60.10514745591051, "alt_km": 620.892976679429, "timestamp": "2025-12-22T05:49:03.139295+00:00", "meta": {"OBJECT_NAME": "KAZEOSAT 2", "OBJECT_ID": "2014-033A", "EPOCH": "2025-12-21T20:31:36.840000", "MEAN_MOTION": 14.85181328, "ECCENTRICITY": 0.0008464, "INCLINATION": 97.5495, "RA_OF_ASC_NODE": 199.6988, "ARG_OF_PERICENTER": 174.9754, "MEAN_ANOMALY": 185.1548, "EPHEMERIS_TYPE": 0, "CLASSIFICATION_TYPE": "U", "NORAD_CAT_ID": 40010, "ELEMENT_SET_NO": 999, "REV_AT_EPOCH": 62263, "BSTAR": 9.7308e-05, "MEAN_MOTION_DOT": 7.84e-06, "MEAN_MOTION_DDOT": 0}, "tle": {"line1": "1 40010U 14033A   25355.85528750  .00000784  00000+0  97308-4 0  9995", "line2": "2 40010  97.5495 199.6988 0008464 174.9754 185.1548 14.85181328622637"}}, "geometry": {"type": "Point", "coordinates": [-60.10514745591051, -82.33423820699643]}}, {"type": "Feature", "properties": {"norad_id": 40011, "name": "HODOYOSHI-4", "group": "resource", "lat": 73.61187203175783, "lon": 157.88688862732727, "alt_km": 599.5479890399683, "timestamp": "2025-12-22T05:49:03.139305+00:00", "meta": {"OBJECT_NAME": "HODOYOSHI-4", "OBJECT_ID": "2014-033B", "EPOCH": "2025-12-21T19:47:31.925184", "MEAN_MOTION": 14.87513581, "ECCENTRICITY": 0.0023908, "INCLINATION": 97.5406, "RA_OF_ASC_NODE": 184.2603, "ARG_OF_PERICENTER": 169.9745, "MEAN_ANOMALY": 190.1954, "EPHEMERIS_TYPE": 0, "CLASSIFICATION_TYPE": "U", "NORAD_CAT_ID": 40011, "ELEMENT_SET_NO": 999, "REV_AT_EPOCH": 62243, "BSTAR": 0.00023398, "MEAN_MOTION_DOT": 2.081e-05, "MEAN_MOTION_DDOT": 0}, "tle": {"line1": "1 40011U 14033B   25355.82467506  .00002081  00000+0  23398-3 0  9993", "line2": "2 40011  97.5406 184.2603 0023908 169.9745 190.1954 14.87513581622435"}}, "geometry": {"type": "Point", "coordinates": [157.88688862732727, 73.61187203175783]}}, {"type": "Feature", "properties": {"norad_id": 40013, "name": "DEIMOS-2", "group": "resource", "lat": 59.7371149510217, "lon": -141.51109663405936, "alt_km": 581.9815572310372, "timestamp": "2025-12-22T05:49:03.139315+00:00", "meta": {"OBJECT_NAME": "DEIMOS-2", "OBJECT_ID": "2014-033D", "EPOCH": "2025-12-21T21:30:16.471008", "MEAN_MOTION": 14.93012336, "ECCENTRICITY": 0.0001519, "INCLINATION": 97.6067, "RA_OF_ASC_NODE": 231.3943, "ARG_OF_PERICENTER": 103.1694, "MEAN_ANOMALY": 256.9695, "EPHEMERIS_TYPE": 0, "CLASSIFICATION_TYPE": "U", "NORAD_CAT_ID": 40013, "ELEMENT_SET_NO": 999, "REV_AT_EPOCH": 61126, "BSTAR": 0.00019932, "MEAN_MOTION_DOT": 2.018e-05, "MEAN_MOTION_DDOT": 0}, "tle": {"line1": "1 40013U 14033D   25355.89602397  .00002018  00000+0  19932-3 0  9990", "line2": "2 40013  97.6067 231.3943 0001519 103.1694 256.9695 14.93012336611260"}}, "geometry": {"type": "Point", "coordinates": [-141.51109663405936, 59.7371149510217]}}, {"type": "Feature", "properties": {"norad_id": 40015, "name": "HODOYOSHI-3", "group": "resource", "lat": -82.37428444147311, "lon": -108.66334821450118, "alt_km": 608.25841789074, "timestamp": "2025-12-22T05:49:03.139344+00:00", "meta": {"OBJECT_NAME": "HODOYOSHI-3", "OBJECT_ID": "2014-033F", "EPOCH": "2025-12-21T17:17:01.918176", "MEAN_MOTION": 14.84834616, "ECCENTRICITY": 0.0032313, "INCLINATION": 97.6205, "RA_OF_ASC_NODE": 161.1649, "ARG_OF_PERICENTER": 217.3776, "MEAN_ANOMALY": 142.5191, "EPHEMERIS_TYPE": 0, "CLASSIFICATION_TYPE": "U", "NORAD_CAT_ID": 40015, "ELEMENT_SET_NO": 999, "REV_AT_EPOCH": 62128, "BSTAR": 0.00015648, "MEAN_MOTION_DOT": 1.289e-05, "MEAN_MOTION_DDOT": 0}, "tle": {"line1": "1 40015U 14033F   25355.72016109  .00001289  00000+0  15648-3 0  9993", "line2": "2 40015  97.6205 161.1649 0032313 217.3776 142.5191 14.84834616621281"}}, "geometry": {"type": "Point", "coordinates": [-108.66334821450118, -82.37428444147311]}}, {"type": "Feature", "properties": {"norad_id": 40053, "name": "SPOT 7", "group": "resource", "lat": -68.67349053098498, "lon": -143.2665966305877, "alt_km": 699.1087525866315, "timestamp": "2025-12-22T05:49:03.139356+00:00", "meta": {"OBJECT_NAME": "SPOT 7", "OBJECT_ID": "2014-034A", "EPOCH": "2025-12-21T20:27:21.324960", "MEAN_MOTION": 14.60743514, "ECCENTRICITY": 0.0001556, "INCLINATION": 98.0899, "RA_OF_ASC_NODE": 57.7179, "ARG_OF_PERICENTER": 84.3062, "MEAN_ANOMALY": 275.8316, "EPHEMERIS_TYPE": 0, "CLASSIFICATION_TYPE": "U", "NORAD_CAT_ID": 40053, "ELEMENT_SET_NO": 999, "REV_AT_EPOCH": 61124, "BSTAR": 5.5623e-05, "MEAN_MOTION_DOT": 2.26e-06, "MEAN_MOTION_DDOT": 0}, "tle": {"line1": "1 40053U 14034A   25355.85233015  .00000226  00000+0  55623-4 0  9995", "line2": "2 40053  98.0899  57.7179 0001556  84.3062 275.8316 14.60743514611244"}}, "geometry": {"type": "Point", "coordinates": [-143.2665966305877, -68.67349053098498]}}, {"type": "Feature", "properties": {"norad_id": 40072, "name": "SKYSAT-B", "group": "resource", "lat": 13.876296721994024, "lon": -61.63168717422879, "alt_km": 608.7630563215562, "timestamp": "2025-12-22T05:49:03.139367+00:00", "meta": {"OBJECT_NAME": "SKYSAT-B", "OBJECT_ID": "2014-037D", "EPOCH": "2025-12-21T18:27:09.237888", "MEAN_MOTION": 14.87356718, "ECCENTRICITY": 0.0006704, "INCLINATION": 98.3624, "RA_OF_ASC_NODE": 299.9522, "ARG_OF_PERICENTER": 124.7394, "MEAN_ANOMALY": 235.4453, "EPHEMERIS_TYPE": 0, "CLASSIFICATION_TYPE": "U", "NORAD_CAT_ID": 40072, "ELEMENT_SET_NO": 999, "REV_AT_EPOCH": 61958, "BSTAR": 0.00015196, "MEAN_MOTION_DOT": 1.312e-05, "MEAN_MOTION_DDOT": 0}, "tle": {"line1": "1 40072U 14037D   25355.76885692  .00001312  00000+0  15196-3 0  9990", "line2": "2 40072  98.3624 299.9522 0006704 124.7394 235.4453 14.87356718619587"}}, "geometry": {"type": "Point", "coordinates": [-61.63168717422879, 13.876296721994024]}}, {"type": "Feature", "properties": {"norad_id": 40115, "name": "WORLDVIEW-3 (WV-3)", "group": "resource", "lat": -8.914085437540049, "lon": -112.8384220179485, "alt_km": 618.0132189954775, "timestamp": "2025-12-22T05:49:03.139378+00:00", "meta": {"OBJECT_NAME": "WORLDVIEW-3 (WV-3)", "OBJECT_ID": "2014-048A", "EPOCH": "2025-12-21T19:15:52.219872", "MEAN_MOTION": 14.84666878, "ECCENTRICITY": 0.0001862, "INCLINATION": 97.8768, "RA_OF_ASC_NODE": 67.9714, "ARG_OF_PERICENTER": 134.3123, "MEAN_ANOMALY": 225.8245, "EPHEMERIS_TYPE": 0, "CLASSIFICATION_TYPE": "U", "NORAD_CAT_ID": 40115, "ELEMENT_SET_NO": 999, "REV_AT_EPOCH": 61558, "BSTAR": 0.00010495, "MEAN_MOTION_DOT": 8.34e-06, "MEAN_MOTION_DDOT": 0}, "tle": {"line1": "1 40115U 14048A   25355.80268773  .00000834  00000+0  10495-3 0  9995", "line2": "2 40115  97.8768  67.9714 0001862 134.3123 225.8245 14.84666878615587"}}, "geometry": {"type": "Point", "coordinates": [-112.8384220179485, -8.914085437540049]}}]}